STARLINK-30107          
1 56287U 23056B   26068.65769541 -.00000122  00000+0  50864-5 0  9992
2 56287  43.0025 191.3282 0001075 253.2800 106.7934 15.27572483160295
TRANSPORTER-12 OBJECT BT
1 62674U 25009BT  26068.71416991  .00013824  00000+0  51029-3 0  9998
2 62674  97.4094 151.5992 0003682 313.5044  46.5889 15.27872239121360
